STRIX-1                 
1 53815U 22113A   26199.81818581  .00012791  00000+0  31095-3 0  9998
2 53815  97.4470 262.4336 0005600 123.1143 237.0642 15.41102843212319
STRIX-3                 
1 59224U 24047A   26199.91675709  .00004277  00000+0  20255-3 0  9996
2 59224  97.6642 176.0739 0011578 320.8277  39.2119 15.19845307129563
STRIX-4                 
1 60352U 24137A   26199.81955806  .00010095  00000+0  31320-3 0  9998
2 60352  43.0148 104.9198 0016605 156.6881 203.4729 15.33389594108874
STRIX-2                 
1 62406U 24248A   26199.83446618  .00002986  00000+0  19147-3 0  9994
2 62406  97.6300 155.3002 0013981 222.1791 137.8362 15.09210444 86360
STRIX-5                 
1 65971U 25229A   26199.83495620  .00001893  00000+0  14416-3 0  9991
2 65971  41.9279 111.8785 0038063 260.5944  99.0578 15.04604410 41742
STRIX-6                 
1 68291U 26056A   26199.69937183  .00000857  00000+0  88520-4 0  9994
2 68291  50.2822 200.8128 0016633   4.6295 355.4805 15.00335442 18009
STRIX-7                 
1 69177U 26112A   26199.84059491  .00001786  00000+0  15239-3 0  9993
2 69177  44.9095  26.1751 0025018 227.5027 132.3731 15.01623278  8638
STRIX-8                 
1 69701U 26146A   26199.80391706  .00002247  00000+0  17136-3 0  9998
2 69701  41.9906 353.1022 0006670  48.6201 311.5198 15.04452047  3328
