{"fetched_at":"2026-07-19T07:05:39.288Z","source":"https://celestrak.org/NORAD/elements/gp.php?NAME=STRIX&FORMAT=JSON","constellation":"synspective","records":[{"OBJECT_NAME":"STRIX-1","OBJECT_ID":"2022-113A","EPOCH":"2026-07-18T19:38:11.253984","CLASSIFICATION_TYPE":"U","MEAN_MOTION":15.41102843,"ECCENTRICITY":0.00056,"INCLINATION":97.447,"RA_OF_ASC_NODE":262.4336,"ARG_OF_PERICENTER":123.1143,"MEAN_ANOMALY":237.0642,"EPHEMERIS_TYPE":0,"NORAD_CAT_ID":53815,"ELEMENT_SET_NO":999,"REV_AT_EPOCH":21231,"BSTAR":0.00031095,"MEAN_MOTION_DOT":0.00012791,"MEAN_MOTION_DDOT":0},{"OBJECT_NAME":"STRIX-3","OBJECT_ID":"2024-047A","EPOCH":"2026-07-18T22:00:07.812576","CLASSIFICATION_TYPE":"U","MEAN_MOTION":15.19845307,"ECCENTRICITY":0.0011578,"INCLINATION":97.6642,"RA_OF_ASC_NODE":176.0739,"ARG_OF_PERICENTER":320.8277,"MEAN_ANOMALY":39.2119,"EPHEMERIS_TYPE":0,"NORAD_CAT_ID":59224,"ELEMENT_SET_NO":999,"REV_AT_EPOCH":12956,"BSTAR":0.00020255,"MEAN_MOTION_DOT":0.00004277,"MEAN_MOTION_DDOT":0},{"OBJECT_NAME":"STRIX-4","OBJECT_ID":"2024-137A","EPOCH":"2026-07-18T19:40:09.816384","CLASSIFICATION_TYPE":"U","MEAN_MOTION":15.33389594,"ECCENTRICITY":0.0016605,"INCLINATION":43.0148,"RA_OF_ASC_NODE":104.9198,"ARG_OF_PERICENTER":156.6881,"MEAN_ANOMALY":203.4729,"EPHEMERIS_TYPE":0,"NORAD_CAT_ID":60352,"ELEMENT_SET_NO":999,"REV_AT_EPOCH":10887,"BSTAR":0.0003132,"MEAN_MOTION_DOT":0.00010095,"MEAN_MOTION_DDOT":0},{"OBJECT_NAME":"STRIX-2","OBJECT_ID":"2024-248A","EPOCH":"2026-07-18T20:01:37.877952","CLASSIFICATION_TYPE":"U","MEAN_MOTION":15.09210444,"ECCENTRICITY":0.0013981,"INCLINATION":97.63,"RA_OF_ASC_NODE":155.3002,"ARG_OF_PERICENTER":222.1791,"MEAN_ANOMALY":137.8362,"EPHEMERIS_TYPE":0,"NORAD_CAT_ID":62406,"ELEMENT_SET_NO":999,"REV_AT_EPOCH":8636,"BSTAR":0.00019147,"MEAN_MOTION_DOT":0.00002986,"MEAN_MOTION_DDOT":0},{"OBJECT_NAME":"STRIX-5","OBJECT_ID":"2025-229A","EPOCH":"2026-07-18T20:02:20.215680","CLASSIFICATION_TYPE":"U","MEAN_MOTION":15.0460441,"ECCENTRICITY":0.0038063,"INCLINATION":41.9279,"RA_OF_ASC_NODE":111.8785,"ARG_OF_PERICENTER":260.5944,"MEAN_ANOMALY":99.0578,"EPHEMERIS_TYPE":0,"NORAD_CAT_ID":65971,"ELEMENT_SET_NO":999,"REV_AT_EPOCH":4174,"BSTAR":0.00014416,"MEAN_MOTION_DOT":0.00001893,"MEAN_MOTION_DDOT":0},{"OBJECT_NAME":"STRIX-6","OBJECT_ID":"2026-056A","EPOCH":"2026-07-18T16:47:05.726112","CLASSIFICATION_TYPE":"U","MEAN_MOTION":15.00335442,"ECCENTRICITY":0.0016633,"INCLINATION":50.2822,"RA_OF_ASC_NODE":200.8128,"ARG_OF_PERICENTER":4.6295,"MEAN_ANOMALY":355.4805,"EPHEMERIS_TYPE":0,"NORAD_CAT_ID":68291,"ELEMENT_SET_NO":999,"REV_AT_EPOCH":1800,"BSTAR":0.00008852,"MEAN_MOTION_DOT":0.00000857,"MEAN_MOTION_DDOT":0},{"OBJECT_NAME":"STRIX-7","OBJECT_ID":"2026-112A","EPOCH":"2026-07-18T20:10:27.400224","CLASSIFICATION_TYPE":"U","MEAN_MOTION":15.01623278,"ECCENTRICITY":0.0025018,"INCLINATION":44.9095,"RA_OF_ASC_NODE":26.1751,"ARG_OF_PERICENTER":227.5027,"MEAN_ANOMALY":132.3731,"EPHEMERIS_TYPE":0,"NORAD_CAT_ID":69177,"ELEMENT_SET_NO":999,"REV_AT_EPOCH":863,"BSTAR":0.00015239,"MEAN_MOTION_DOT":0.00001786,"MEAN_MOTION_DDOT":0},{"OBJECT_NAME":"STRIX-8","OBJECT_ID":"2026-146A","EPOCH":"2026-07-18T19:17:38.433984","CLASSIFICATION_TYPE":"U","MEAN_MOTION":15.04452047,"ECCENTRICITY":0.000667,"INCLINATION":41.9906,"RA_OF_ASC_NODE":353.1022,"ARG_OF_PERICENTER":48.6201,"MEAN_ANOMALY":311.5198,"EPHEMERIS_TYPE":0,"NORAD_CAT_ID":69701,"ELEMENT_SET_NO":999,"REV_AT_EPOCH":332,"BSTAR":0.00017136,"MEAN_MOTION_DOT":0.00002247,"MEAN_MOTION_DDOT":0}]}
